{"type": "FeatureCollection", "features": [ {"type": "Feature", "properties": {"norad_id": 66879, "name": "STARLINK-35749", "group": "last-30-days", "lat": -7.269729490798582, "lon": -0.8008359915683785, "alt_km": 402.0165891886527, "timestamp": "2025-12-26T15:29:38.168412+00:00", "meta": {"OBJECT_NAME": "STARLINK-35749", "OBJECT_ID": "2025-283B", "EPOCH": "2025-12-26T06:00:02.999808", "MEAN_MOTION": 15.57473669, "ECCENTRICITY": 0.00014395, "INCLINATION": 53.1593, "RA_OF_ASC_NODE": 6.6, "ARG_OF_PERICENTER": 93.5272, "MEAN_ANOMALY": 199.6995, "EPHEMERIS_TYPE": 0, "CLASSIFICATION_TYPE": "U", "NORAD_CAT_ID": 66879, "ELEMENT_SET_NO": 999, "REV_AT_EPOCH": 460, "BSTAR": -0.03071855, "MEAN_MOTION_DOT": -0.02052241, "MEAN_MOTION_DDOT": 0}, "tle": {"line1": "1 66879U 25283B   25360.25003472 -.02052241  00000+0 -30719-1 0  9993", "line2": "2 66879  53.1593   6.6000 0001439  93.5272 199.6995 15.57473669  4602"}}, "geometry": {"type": "Point", "coordinates": [-0.8008359915683785, -7.269729490798582]}}, {"type": "Feature", "properties": {"norad_id": 66880, "name": "STARLINK-35844", "group": "last-30-days", "lat": -8.794356041937935, "lon": -1.9686465550460586, "alt_km": 402.18489737391064, "timestamp": "2025-12-26T15:29:38.168425+00:00", "meta": {"OBJECT_NAME": "STARLINK-35844", "OBJECT_ID": "2025-283C", "EPOCH": "2025-12-26T06:00:02.999808", "MEAN_MOTION": 15.57471361, "ECCENTRICITY": 0.0001434, "INCLINATION": 53.16, "RA_OF_ASC_NODE": 6.6045, "ARG_OF_PERICENTER": 90.7908, "MEAN_ANOMALY": 200.5214, "EPHEMERIS_TYPE": 0, "CLASSIFICATION_TYPE": "U", "NORAD_CAT_ID": 66880, "ELEMENT_SET_NO": 999, "REV_AT_EPOCH": 460, "BSTAR": -0.030689292, "MEAN_MOTION_DOT": -0.0205033, "MEAN_MOTION_DDOT": 0}, "tle": {"line1": "1 66880U 25283C   25360.25003472 -.02050330  00000+0 -30689-1 0  9998", "line2": "2 66880  53.1600   6.6045 0001434  90.7908 200.5214 15.57471361  4605"}}, "geometry": {"type": "Point", "coordinates": [-1.9686465550460586, -8.794356041937935]}}, {"type": "Feature", "properties": {"norad_id": 66881, "name": "STARLINK-35860", "group": "last-30-days", "lat": -5.742026576501809, "lon": 0.35948299120167043, "alt_km": 401.75482380887297, "timestamp": "2025-12-26T15:29:38.168436+00:00", "meta": {"OBJECT_NAME": "STARLINK-35860", "OBJECT_ID": "2025-283D", "EPOCH": "2025-12-26T06:00:02.999808", "MEAN_MOTION": 15.57475013, "ECCENTRICITY": 0.00014303, "INCLINATION": 53.1592, "RA_OF_ASC_NODE": 6.5957, "ARG_OF_PERICENTER": 89.8368, "MEAN_ANOMALY": 205.3071, "EPHEMERIS_TYPE": 0, "CLASSIFICATION_TYPE": "U", "NORAD_CAT_ID": 66881, "ELEMENT_SET_NO": 999, "REV_AT_EPOCH": 460, "BSTAR": -0.030774112, "MEAN_MOTION_DOT": -0.02055644, "MEAN_MOTION_DDOT": 0}, "tle": {"line1": "1 66881U 25283D   25360.25003472 -.02055644  00000+0 -30774-1 0  9997", "line2": "2 66881  53.1592   6.5957 0001430  89.8368 205.3071 15.57475013  4604"}}, "geometry": {"type": "Point", "coordinates": [0.35948299120167043, -5.742026576501809]}}, {"type": "Feature", "properties": {"norad_id": 66882, "name": "STARLINK-35912", "group": "last-30-days", "lat": -4.211827853820952, "lon": 1.5149382615171907, "alt_km": 401.52483053826654, "timestamp": "2025-12-26T15:29:38.168445+00:00", "meta": {"OBJECT_NAME": "STARLINK-35912", "OBJECT_ID": "2025-283E", "EPOCH": "2025-12-26T06:00:02.999808", "MEAN_MOTION": 15.57471983, "ECCENTRICITY": 0.00014146, "INCLINATION": 53.1594, "RA_OF_ASC_NODE": 6.5926, "ARG_OF_PERICENTER": 89.5592, "MEAN_ANOMALY": 207.5017, "EPHEMERIS_TYPE": 0, "CLASSIFICATION_TYPE": "U", "NORAD_CAT_ID": 66882, "ELEMENT_SET_NO": 999, "REV_AT_EPOCH": 460, "BSTAR": -0.030679255, "MEAN_MOTION_DOT": -0.02049763, "MEAN_MOTION_DDOT": 0}, "tle": {"line1": "1 66882U 25283E   25360.25003472 -.02049763  00000+0 -30679-1 0  9997", "line2": "2 66882  53.1594   6.5926 0001414  89.5592 207.5017 15.57471983  4607"}}, "geometry": {"type": "Point", "coordinates": [1.5149382615171907, -4.211827853820952]}}, {"type": "Feature", "properties": {"norad_id": 66883, "name": "STARLINK-35947", "group": "last-30-days", "lat": -2.6792447324104183, "lon": 2.6661579717489508, "alt_km": 401.3307332620234, "timestamp": "2025-12-26T15:29:38.168457+00:00", "meta": {"OBJECT_NAME": "STARLINK-35947", "OBJECT_ID": "2025-283F", "EPOCH": "2025-12-26T06:00:02.999808", "MEAN_MOTION": 15.57468425, "ECCENTRICITY": 0.00013794, "INCLINATION": 53.1598, "RA_OF_ASC_NODE": 6.5893, "ARG_OF_PERICENTER": 92.1316, "MEAN_ANOMALY": 206.8474, "EPHEMERIS_TYPE": 0, "CLASSIFICATION_TYPE": "U", "NORAD_CAT_ID": 66883, "ELEMENT_SET_NO": 999, "REV_AT_EPOCH": 464, "BSTAR": -0.030583158, "MEAN_MOTION_DOT": -0.02005752, "MEAN_MOTION_DDOT": 0}, "tle": {"line1": "1 66883U 25283F   25360.25003472 -.02005752  00000+0 -30583-1 0  9992", "line2": "2 66883  53.1598   6.5893 0001379  92.1316 206.8474 15.57468425  4649"}}, "geometry": {"type": "Point", "coordinates": [2.6661579717489508, -2.6792447324104183]}}, {"type": "Feature", "properties": {"norad_id": 66884, "name": "STARLINK-36057", "group": "last-30-days", "lat": 0.38962838290730795, "lon": 4.9601544206792045, "alt_km": 400.8787448202065, "timestamp": "2025-12-26T15:29:38.168469+00:00", "meta": {"OBJECT_NAME": "STARLINK-36057", "OBJECT_ID": "2025-283G", "EPOCH": "2025-12-26T06:00:02.999808", "MEAN_MOTION": 15.57470322, "ECCENTRICITY": 0.00012803, "INCLINATION": 53.1594, "RA_OF_ASC_NODE": 6.5806, "ARG_OF_PERICENTER": 92.2904, "MEAN_ANOMALY": 210.5243, "EPHEMERIS_TYPE": 0, "CLASSIFICATION_TYPE": "U", "NORAD_CAT_ID": 66884, "ELEMENT_SET_NO": 999, "REV_AT_EPOCH": 460, "BSTAR": -0.030672189, "MEAN_MOTION_DOT": -0.02049139, "MEAN_MOTION_DDOT": 0}, "tle": {"line1": "1 66884U 25283G   25360.25003472 -.02049139  00000+0 -30672-1 0  9999", "line2": "2 66884  53.1594   6.5806 0001280  92.2904 210.5243 15.57470322  4606"}}, "geometry": {"type": "Point", "coordinates": [4.9601544206792045, 0.38962838290730795]}}, {"type": "Feature", "properties": {"norad_id": 66885, "name": "STARLINK-35954", "group": "last-30-days", "lat": -1.1447865331115494, "lon": 3.8135830197987417, "alt_km": 401.0856360508724, "timestamp": "2025-12-26T15:29:38.168479+00:00", "meta": {"OBJECT_NAME": "STARLINK-35954", "OBJECT_ID": "2025-283H", "EPOCH": "2025-12-26T06:00:02.999808", "MEAN_MOTION": 15.57471223, "ECCENTRICITY": 0.00013258, "INCLINATION": 53.1593, "RA_OF_ASC_NODE": 6.5846, "ARG_OF_PERICENTER": 90.109, "MEAN_ANOMALY": 210.789, "EPHEMERIS_TYPE": 0, "CLASSIFICATION_TYPE": "U", "NORAD_CAT_ID": 66885, "ELEMENT_SET_NO": 999, "REV_AT_EPOCH": 460, "BSTAR": -0.030711497, "MEAN_MOTION_DOT": -0.02051577, "MEAN_MOTION_DDOT": 0}, "tle": {"line1": "1 66885U 25283H   25360.25003472 -.02051577  00000+0 -30711-1 0  9993", "line2": "2 66885  53.1593   6.5846 0001325  90.1090 210.7890 15.57471223  4604"}}, "geometry": {"type": "Point", "coordinates": [3.8135830197987417, -1.1447865331115494]}}, {"type": "Feature", "properties": {"norad_id": 66886, "name": "STARLINK-35900", "group": "last-30-days", "lat": 1.9218300465262674, "lon": 6.105191952083436, "alt_km": 400.62114288025896, "timestamp": "2025-12-26T15:29:38.168489+00:00", "meta": {"OBJECT_NAME": "STARLINK-35900", "OBJECT_ID": "2025-283J", "EPOCH": "2025-12-26T06:00:02.999808", "MEAN_MOTION": 15.57470995, "ECCENTRICITY": 0.00013686, "INCLINATION": 53.1595, "RA_OF_ASC_NODE": 6.5762, "ARG_OF_PERICENTER": 90.7019, "MEAN_ANOMALY": 214.0279, "EPHEMERIS_TYPE": 0, "CLASSIFICATION_TYPE": "U", "NORAD_CAT_ID": 66886, "ELEMENT_SET_NO": 999, "REV_AT_EPOCH": 460, "BSTAR": -0.030672924, "MEAN_MOTION_DOT": -0.02049286, "MEAN_MOTION_DDOT": 0}, "tle": {"line1": "1 66886U 25283J   25360.25003472 -.02049286  00000+0 -30673-1 0  9995", "line2": "2 66886  53.1595   6.5762 0001368  90.7019 214.0279 15.57470995  4601"}}, "geometry": {"type": "Point", "coordinates": [6.105191952083436, 1.9218300465262674]}}, {"type": "Feature", "properties": {"norad_id": 66887, "name": "STARLINK-35925", "group": "last-30-days", "lat": 3.455930286246622, "lon": 7.25511705915136, "alt_km": 400.43933086389643, "timestamp": "2025-12-26T15:29:38.168498+00:00", "meta": {"OBJECT_NAME": "STARLINK-35925", "OBJECT_ID": "2025-283K", "EPOCH": "2025-12-26T06:00:02.999808", "MEAN_MOTION": 15.57470276, "ECCENTRICITY": 0.00013423, "INCLINATION": 53.1593, "RA_OF_ASC_NODE": 6.5726, "ARG_OF_PERICENTER": 94.895, "MEAN_ANOMALY": 211.7533, "EPHEMERIS_TYPE": 0, "CLASSIFICATION_TYPE": "U", "NORAD_CAT_ID": 66887, "ELEMENT_SET_NO": 999, "REV_AT_EPOCH": 460, "BSTAR": -0.030667183, "MEAN_MOTION_DOT": -0.02048877, "MEAN_MOTION_DDOT": 0}, "tle": {"line1": "1 66887U 25283K   25360.25003472 -.02048877  00000+0 -30667-1 0  9994", "line2": "2 66887  53.1593   6.5726 0001342  94.8950 211.7533 15.57470276  4600"}}, "geometry": {"type": "Point", "coordinates": [7.25511705915136, 3.455930286246622]}}, {"type": "Feature", "properties": {"norad_id": 66888, "name": "STARLINK-35919", "group": "last-30-days", "lat": 4.987717984912036, "lon": 8.407590488460418, "alt_km": 400.19993684596284, "timestamp": "2025-12-26T15:29:38.168508+00:00", "meta": {"OBJECT_NAME": "STARLINK-35919", "OBJECT_ID": "2025-283L", "EPOCH": "2025-12-26T06:00:02.999808", "MEAN_MOTION": 15.57470073, "ECCENTRICITY": 0.00013108, "INCLINATION": 53.1592, "RA_OF_ASC_NODE": 6.5685, "ARG_OF_PERICENTER": 95.8325, "MEAN_ANOMALY": 212.7305, "EPHEMERIS_TYPE": 0, "CLASSIFICATION_TYPE": "U", "NORAD_CAT_ID": 66888, "ELEMENT_SET_NO": 999, "REV_AT_EPOCH": 460, "BSTAR": -0.03061556, "MEAN_MOTION_DOT": -0.02045761, "MEAN_MOTION_DDOT": 0}, "tle": {"line1": "1 66888U 25283L   25360.25003472 -.02045761  00000+0 -30616-1 0  9998", "line2": "2 66888  53.1592   6.5685 0001310  95.8325 212.7305 15.57470073  4609"}}, "geometry": {"type": "Point", "coordinates": [8.407590488460418, 4.987717984912036]}}]}